NORAD_CAT_ID,OBJECT_NAME,OBJECT_TYPE,EPOCH,MEAN_MOTION,ECCENTRICITY,INCLINATION,RA_OF_ASC_NODE,ARG_OF_PERICENTER,MEAN_ANOMALY,BSTAR,MEAN_MOTION_DOT,MEAN_MOTION_DDOT,TLE_LINE0,TLE_LINE1,TLE_LINE2,SEMIMAJOR_AXIS,PERIOD,APOGEE,PERIGEE,DECAYED
49133.0,STARLINK-3077,PAYLOAD,2024-07-02 20:42:42,14.9832158,0.0003085,69.9998,44.6536,267.9126,92.168,5.396e-05,5.51e-06,0.0,0 STARLINK-3077,1 49133U 21082D   24184.86299298  .00000551  00000-0  53960-4 0  9993,2 49133  69.9998  44.6536 0003085 267.9126  92.1680 14.98321580153881,6950.219,96.108,574.228,569.94,0.0
49133.0,STARLINK-3077,PAYLOAD,2024-07-02 22:18:50,14.98320527,0.0002685,70.0008,44.4869,261.2007,98.8848,8.4505e-05,9.15e-06,0.0,0 STARLINK-3077,1 49133U 21082D   24184.92975337  .00000915  00000-0  84505-4 0  9998,2 49133  70.0008  44.4869 0002685 261.2007  98.8848 14.98320527153893,6950.222,96.108,573.953,570.221,0.0
49133.0,STARLINK-3077,PAYLOAD,2024-07-03 07:55:38,14.98327515,0.0003103,69.9998,43.4747,271.0568,89.0236,4.5143e-05,4.46e-06,0.0,0 STARLINK-3077,1 49133U 21082D   24185.33030922  .00000446  00000-0  45143-4 0  9990,2 49133  69.9998  43.4747 0003103 271.0568  89.0236 14.98327515153953,6950.201,96.107,574.222,569.909,0.0
49133.0,STARLINK-3077,PAYLOAD,2024-07-03 20:44:42,14.98348464,0.0003038,69.9999,42.1285,268.7049,91.3762,-0.00028196,-3.457e-05,0.0,0 STARLINK-3077,1 49133U 21082D   24185.86437943 -.00003457  00000-0 -28196-3 0  9997,2 49133  69.9999  42.1285 0003038 268.7049  91.3762 14.98348464154037,6950.136,96.106,574.112,569.889,0.0
49133.0,STARLINK-3077,PAYLOAD,2024-07-03 22:20:50,14.98347921,0.0003047,69.9999,41.9602,268.886,91.195,-0.00028063,-3.441e-05,0.0,0 STARLINK-3077,1 49133U 21082D   24185.93113900 -.00003441  00000-0 -28063-3 0  9995,2 49133  69.9999  41.9602 0003047 268.8860  91.1950 14.98347921154044,6950.137,96.106,574.12,569.885,0.0
49133.0,STARLINK-3077,PAYLOAD,2024-07-04 14:22:11,14.98324074,0.0003306,69.9996,40.276,270.0822,89.9958,0.00011791,1.314e-05,0.0,0 STARLINK-3077,1 49133U 21082D   24186.59873985  .00001314  00000-0  11791-3 0  9999,2 49133  69.9996  40.2760 0003306 270.0822  89.9958 14.98324074154147,6950.211,96.107,574.374,569.778,0.0
49133.0,STARLINK-3077,PAYLOAD,2024-07-04 20:46:43,14.98329346,0.0003335,69.9996,39.6026,269.8176,90.2601,0.00011328,1.259e-05,0.0,0 STARLINK-3077,1 49133U 21082D   24186.86577777  .00001259  00000-0  11328-3 0  9993,2 49133  69.9996  39.6026 0003335 269.8176  90.2601 14.98329346154185,6950.195,96.107,574.378,569.742,0.0
49133.0,STARLINK-3077,PAYLOAD,2024-07-04 22:22:51,14.98330463,0.0003321,69.9996,39.4343,269.8944,90.1834,0.00012499,1.399e-05,0.0,0 STARLINK-3077,1 49133U 21082D   24186.93253689  .00001399  00000-0  12499-3 0  9999,2 49133  69.9996  39.4343 0003321 269.8944  90.1834 14.98330463154193,6950.191,96.107,574.365,569.748,0.0
49133.0,STARLINK-3077,PAYLOAD,2024-07-05 14:24:11,14.9832986,0.0003305,69.9997,37.7508,269.7368,90.3412,9.6548e-05,1.059e-05,0.0,0 STARLINK-3077,1 49133U 21082D   24187.60013808  .00001059  00000-0  96548-4 0  9992,2 49133  69.9997  37.7508 0003305 269.7368  90.3412 14.98329860154293,6950.193,96.107,574.355,569.761,0.0
49133.0,STARLINK-3077,PAYLOAD,2024-07-05 20:48:43,14.9833456,0.0003309,69.9997,37.0775,269.7076,90.3704,8.4897e-05,9.2e-06,0.0,0 STARLINK-3077,1 49133U 21082D   24187.86717541  .00000920  00000-0  84897-4 0  9995,2 49133  69.9997  37.0775 0003309 269.7076  90.3704 14.98334560154334,6950.179,96.107,574.344,569.744,0.0
49133.0,STARLINK-3077,PAYLOAD,2024-07-05 22:24:51,14.98336625,0.00033,69.9997,36.9092,269.7074,90.3707,0.00010638,1.177e-05,0.0,0 STARLINK-3077,1 49133U 21082D   24187.93393335  .00001177  00000-0  10638-3 0  9990,2 49133  69.9997  36.9092 0003300 269.7074  90.3707 14.98336625154341,6950.172,96.107,574.331,569.744,0.0
49133.0,STARLINK-3077,PAYLOAD,2024-07-06 14:26:12,14.98329345,0.0003159,70.0,35.2255,269.7297,90.35,1.1146e-05,4e-07,0.0,0 STARLINK-3077,1 49133U 21082D   24188.60153884  .00000040  00000-0  11146-4 0  9992,2 49133  70.0000  35.2255 0003159 269.7297  90.3500 14.98329345154444,6950.195,96.107,574.255,569.864,0.0
49133.0,STARLINK-3077,PAYLOAD,2024-07-06 20:50:45,14.98329809,0.0003274,69.9998,34.5532,270.4979,89.5805,-9.8028e-06,-2.1e-06,0.0,0 STARLINK-3077,1 49133U 21082D   24188.86857921 -.00000210  00000-0 -98028-5 0  9999,2 49133  69.9998  34.5532 0003274 270.4979  89.5805 14.98329809154488,6950.193,96.107,574.334,569.783,0.0
49133.0,STARLINK-3077,PAYLOAD,2024-07-06 22:26:53,14.98329779,0.0003273,69.9998,34.3849,270.5271,89.5513,-1.0897e-05,-2.23e-06,0.0,0 STARLINK-3077,1 49133U 21082D   24188.93533921 -.00000223  00000-0 -10897-4 0  9999,2 49133  69.9998  34.3849 0003273 270.5271  89.5513 14.98329779154495,6950.194,96.107,574.333,569.784,0.0
49133.0,STARLINK-3077,PAYLOAD,2024-07-07 14:28:13,14.98333628,0.000322,69.9999,32.7017,271.9644,88.1146,4.0715e-05,3.93e-06,0.0,0 STARLINK-3077,1 49133U 21082D   24189.60293543  .00000393  00000-0  40715-4 0  9995,2 49133  69.9999  32.7017 0003220 271.9644  88.1146 14.98333628154592,6950.182,96.107,574.285,569.809,0.0
49133.0,STARLINK-3077,PAYLOAD,2024-07-07 20:52:45,14.98334931,0.0003311,69.9997,32.0279,273.5027,86.5753,2.783e-05,2.39e-06,0.0,0 STARLINK-3077,1 49133U 21082D   24189.86997456  .00000239  00000-0  27830-4 0  9999,2 49133  69.9997  32.0279 0003311 273.5027  86.5753 14.98334931154636,6950.178,96.107,574.344,569.741,0.0
49133.0,STARLINK-3077,PAYLOAD,2024-07-08 14:30:14,14.98324892,0.0003205,70.0002,30.1771,270.4622,89.6169,3.3806e-05,3.1e-06,0.0,0 STARLINK-3077,1 49133U 21082D   24190.60433958  .00000310  00000-0  33806-4 0  9995,2 49133  70.0002  30.1771 0003205 270.4622  89.6169 14.98324892154743,6950.209,96.107,574.301,569.846,0.0
49133.0,STARLINK-3077,PAYLOAD,2024-07-08 20:54:47,14.98327538,0.0003178,70.0001,29.5039,270.0782,90.0013,5.9817e-05,6.21e-06,0.0,0 STARLINK-3077,1 49133U 21082D   24190.87137802  .00000621  00000-0  59817-4 0  9998,2 49133  70.0001  29.5039 0003178 270.0782  90.0013 14.98327538154781,6950.201,96.107,574.274,569.857,0.0
49133.0,STARLINK-3077,PAYLOAD,2024-07-08 22:30:55,14.98328551,0.0003171,70.0001,29.3356,269.8787,90.2009,6.9663e-05,7.38e-06,0.0,0 STARLINK-3077,1 49133U 21082D   24190.93813720  .00000738  00000-0  69663-4 0  9994,2 49133  70.0001  29.3356 0003171 269.8787  90.2009 14.98328551154799,6950.197,96.107,574.266,569.858,0.0
49133.0,STARLINK-3077,PAYLOAD,2024-07-09 14:32:15,14.98333046,0.0003097,70.0003,27.6523,268.9768,91.1036,1.6942e-05,1.09e-06,0.0,0 STARLINK-3077,1 49133U 21082D   24191.60573554  .00000109  00000-0  16942-4 0  9991,2 49133  70.0003  27.6523 0003097 268.9768  91.1036 14.98333046154890,6950.183,96.107,574.201,569.896,0.0
49133.0,STARLINK-3077,PAYLOAD,2024-07-09 20:56:47,14.98332585,0.0003091,70.0004,26.9789,268.9347,91.1458,3.0059e-05,2.66e-06,0.0,0 STARLINK-3077,1 49133U 21082D   24191.87277512  .00000266  00000-0  30059-4 0  9994,2 49133  70.0004  26.9789 0003091 268.9347  91.1458 14.98332585154934,6950.185,96.107,574.198,569.902,0.0
49133.0,STARLINK-3077,PAYLOAD,2024-07-09 22:32:55,14.98332982,0.000309,70.0004,26.8106,268.9336,91.1469,3.3758e-05,3.1e-06,0.0,0 STARLINK-3077,1 49133U 21082D   24191.93953466  .00000310  00000-0  33758-4 0  9999,2 49133  70.0004  26.8106 0003090 268.9336  91.1469 14.98332982154947,6950.184,96.107,574.196,569.901,0.0
49133.0,STARLINK-3077,PAYLOAD,2024-07-10 12:58:08,14.9832559,0.000314,70.0,25.2939,270.5214,89.5586,3.9545e-05,3.79e-06,0.0,0 STARLINK-3077,1 49133U 21082D   24192.54037897  .00000379  00000-0  39545-4 0  9993,2 49133  70.0000  25.2939 0003140 270.5214  89.5586 14.98325590155039,6950.207,96.107,574.254,569.889,0.0
49133.0,STARLINK-3077,PAYLOAD,2024-07-10 22:34:57,14.98327701,0.0003162,70.0,24.2838,270.2543,89.8254,3.1898e-05,2.88e-06,0.0,0 STARLINK-3077,1 49133U 21082D   24192.94093851  .00000288  00000-0  31898-4 0  9991,2 49133  70.0000  24.2838 0003162 270.2543  89.8254 14.98327701155099,6950.2,96.107,574.263,569.867,0.0
49133.0,STARLINK-3077,PAYLOAD,2024-07-11 14:36:17,14.9833468,0.0003179,70.0,22.6006,270.4464,89.633,6.868e-05,7.27e-06,0.0,0 STARLINK-3077,1 49133U 21082D   24193.60853270  .00000727  00000-0  68680-4 0  9991,2 49133  70.0000  22.6006 0003179 270.4464  89.6330 14.98334680155198,6950.178,96.107,574.253,569.834,0.0
49133.0,STARLINK-3077,PAYLOAD,2024-07-11 19:24:41,14.98337105,0.0003205,70.0001,22.0961,271.3816,88.6975,8.8825e-05,9.67e-06,0.0,0 STARLINK-3077,1 49133U 21082D   24193.80881019  .00000967  00000-0  88825-4 0  9994,2 49133  70.0001  22.0961 0003205 271.3816  88.6975 14.98337105155227,6950.171,96.107,574.263,569.808,0.0
49133.0,STARLINK-3077,PAYLOAD,2024-07-12 13:02:10,14.98328186,0.0003149,70.0001,20.2444,271.6441,88.4357,5.8011e-05,5.99e-06,0.0,0 STARLINK-3077,1 49133U 21082D   24194.54317602  .00000599  00000-0  58011-4 0  9993,2 49133  70.0001  20.2444 0003149 271.6441  88.4357 14.98328186155330,6950.199,96.107,574.252,569.875,0.0
49133.0,STARLINK-3077,PAYLOAD,2024-07-12 14:38:18,14.98328552,0.0003157,70.0002,20.0761,271.5891,88.4907,6.1118e-05,6.36e-06,0.0,0 STARLINK-3077,1 49133U 21082D   24194.60993576  .00000636  00000-0  61118-4 0  9994,2 49133  70.0002  20.0761 0003157 271.5891  88.4907 14.98328552155347,6950.197,96.107,574.257,569.868,0.0
49133.0,STARLINK-3077,PAYLOAD,2024-07-12 22:38:58,14.98331432,0.0003183,70.0003,19.2345,271.4545,88.625,7.4024e-05,7.9e-06,0.0,0 STARLINK-3077,1 49133U 21082D   24194.94373367  .00000790  00000-0  74024-4 0  9992,2 49133  70.0003  19.2345 0003183 271.4545  88.6250 14.98331432155399,6950.188,96.107,574.266,569.841,0.0
49133.0,STARLINK-3077,PAYLOAD,2024-07-13 13:04:11,14.983345,0.0003133,70.0004,17.7196,271.2213,88.8587,4.2022e-06,-4.3e-07,0.0,0 STARLINK-3077,1 49133U 21082D   24195.54457318 -.00000043  00000-0  42022-5 0  9994,2 49133  70.0004  17.7196 0003133 271.2213  88.8587 14.98334500155486,6950.179,96.107,574.221,569.866,0.0
